{"fetched_at":"2026-03-29T02:12:04Z","count":15717,"tles":[{"name":"CARTOSAT-2B","line1":"1 36795U 10035A   26086.45793980  .00000944  00000+0  13576-3 0  9997","line2":"2 36795  97.9753 137.5018 0012736  94.8962 265.3704 14.78654353847770","category":"Other"}]}